$$SOE
2459580.500000000, A.D. 2022-Jan-01 00:00:00.0000, -7.171666888883509E+07, 3.113806982651619E+08, 2.071316618411720E+07,
2459587.500000000, A.D. 2022-Jan-08 00:00:00.0000, -8.428093632051088E+07, 3.112356470839562E+08, 2.053422173289141E+07,
2459594.500000000, A.D. 2022-Jan-15 00:00:00.0000, -9.672402439478934E+07, 3.106426450649799E+08, 2.032572243916523E+07,
2459601.500000000, A.D. 2022-Jan-22 00:00:00.0000, -1.090316851927732E+08, 3.096143207885449E+08, 2.008873862532039E+07,
2459608.500000000, A.D. 2022-Jan-29 00:00:00.0000, -1.211906407173562E+08, 3.081634064942923E+08, 1.982433472463217E+07,
2459615.500000000, A.D. 2022-Feb-05 00:00:00.0000, -1.331885376714334E+08, 3.063026852188303E+08, 1.953356642576636E+07,
2459622.500000000, A.D. 2022-Feb-12 00:00:00.0000, -1.450139000874581E+08, 3.040449434053462E+08, 1.921747799087581E+07,
2459629.500000000, A.D. 2022-Feb-19 00:00:00.0000, -1.566560816102976E+08, 3.014029308263515E+08, 1.887710001877889E+07,
2459636.500000000, A.D. 2022-Feb-26 00:00:00.0000, -1.681052191173446E+08, 2.983893265699074E+08, 1.851344767075887E+07,
2459643.500000000, A.D. 2022-Mar-05 00:00:00.0000, -1.793521878122501E+08, 2.950167099542546E+08, 1.812751925264011E+07,
2459650.500000000, A.D. 2022-Mar-12 00:00:00.0000, -1.903885578020868E+08, 2.912975358131612E+08, 1.772029508929177E+07,
2459657.500000000, A.D. 2022-Mar-19 00:00:00.0000, -2.012065522612318E+08, 2.872441137199249E+08, 1.729273665241441E+07,
2459664.500000000, A.D. 2022-Mar-26 00:00:00.0000, -2.117990072842022E+08, 2.828685907170755E+08, 1.684578590728444E+07,
2459671.500000000, A.D. 2022-Apr-02 00:00:00.0000, -2.221593334420720E+08, 2.781829371020662E+08, 1.638036483887525E+07,
2459678.500000000, A.D. 2022-Apr-09 00:00:00.0000, -2.322814788175899E+08, 2.731989349122874E+08, 1.589737510682942E+07,
2459685.500000000, A.D. 2022-Apr-16 00:00:00.0000, -2.421598931805287E+08, 2.679281694331390E+08, 1.539769782666801E+07,
2459692.500000000, A.D. 2022-Apr-23 00:00:00.0000, -2.517894945694015E+08, 2.623820245144057E+08, 1.488219366136914E+07,
2459699.500000000, A.D. 2022-Apr-30 00:00:00.0000, -2.611656401279256E+08, 2.565716791828721E+08, 1.435170319262598E+07,
2459706.500000000, A.D. 2022-May-07 00:00:00.0000, -2.702840980895552E+08, 2.505081033335116E+08, 1.380704711299056E+07,
2459713.500000000, A.D. 2022-May-14 00:00:00.0000, -2.791410194687074E+08, 2.442020553110381E+08, 1.324902634537040E+07,
2459720.500000000, A.D. 2022-May-21 00:00:00.0000, -2.877329114375097E+08, 2.376640819447258E+08, 1.267842232529457E+07,
2459727.500000000, A.D. 2022-May-28 00:00:00.0000, -2.960566128041619E+08, 2.309045199065711E+08, 1.209599740005422E+07,
2459734.500000000, A.D. 2022-Jun-04 00:00:00.0000, -3.041092712461041E+08, 2.239334979245117E+08, 1.150249528382236E+07,
2459741.500000000, A.D. 2022-Jun-11 00:00:00.0000, -3.118883220821829E+08, 2.167609397138730E+08, 1.089864154706325E+07,
2459748.500000000, A.D. 2022-Jun-18 00:00:00.0000, -3.193914684736392E+08, 2.093965675177472E+08, 1.028514413029294E+07,
2459755.500000000, A.D. 2022-Jun-25 00:00:00.0000, -3.266166629530941E+08, 2.018499061153390E+08, 9.662693870323807E+06,
2459762.500000000, A.D. 2022-Jul-02 00:00:00.0000, -3.335620900768108E+08, 1.941302871378376E+08, 9.031965015784457E+06,
2459769.500000000, A.D. 2022-Jul-09 00:00:00.0000, -3.402261497405053E+08, 1.862468537855423E+08, 8.393615705871858E+06,
2459776.500000000, A.D. 2022-Jul-16 00:00:00.0000, -3.466074411465985E+08, 1.782085669556731E+08, 7.748288501899280E+06,
2459783.500000000, A.D. 2022-Jul-23 00:00:00.0000, -3.527047495584398E+08, 1.700242127947974E+08, 7.096611176192202E+06,
2459790.500000000, A.D. 2022-Jul-30 00:00:00.0000, -3.585170356980332E+08, 1.617024082692062E+08, 6.439197473565690E+06,
2459797.500000000, A.D. 2022-Aug-06 00:00:00.0000, -3.640434241261212E+08, 1.532516053552839E+08, 5.776647566124402E+06,
2459804.500000000, A.D. 2022-Aug-13 00:00:00.0000, -3.692831913681300E+08, 1.446800965595767E+08, 5.109548500391386E+06,
2459811.500000000, A.D. 2022-Aug-20 00:00:00.0000, -3.742357553052792E+08, 1.359960212279291E+08, 4.438474737897255E+06,
2459818.500000000, A.D. 2022-Aug-27 00:00:00.0000, -3.789006657155210E+08, 1.272073718886279E+08, 3.763988722188056E+06,
2459825.500000000, A.D. 2022-Sep-03 00:00:00.0000, -3.832775956696665E+08, 1.183220004946728E+08, 3.086641439455345E+06,
2459832.500000000, A.D. 2022-Sep-10 00:00:00.0000, -3.873663336484109E+08, 1.093476245681248E+08, 2.406972965645276E+06,
2459839.500000000, A.D. 2022-Sep-17 00:00:00.0000, -3.911667763092510E+08, 1.002918332277897E+08, 1.725512996472068E+06,
2459846.500000000, A.D. 2022-Sep-24 00:00:00.0000, -3.946789218026565E+08, 9.116209303582540E+07, 1.042781350069515E+06,
2459853.500000000, A.D. 2022-Oct-01 00:00:00.0000, -3.979028633579336E+08, 8.196575362938923E+07, 3.592884181242250E+05,
2459860.500000000, A.D. 2022-Oct-08 00:00:00.0000, -4.008387826934158E+08, 7.271005364795482E+07, -3.244644292791486E+05,
2459867.500000000, A.D. 2022-Oct-15 00:00:00.0000, -4.034869441491536E+08, 6.340212814348487E+07, -1.007984301691111E+06,
2459874.500000000, A.D. 2022-Oct-22 00:00:00.0000, -4.058476916981222E+08, 5.404901577920745E+07, -1.690786047116105E+06,
2459881.500000000, A.D. 2022-Oct-29 00:00:00.0000, -4.079214463185369E+08, 4.465766321900470E+07, -2.372391753307851E+06,
2459888.500000000, A.D. 2022-Nov-05 00:00:00.0000, -4.097087016058201E+08, 3.523492944860651E+07, -3.052330460309492E+06,
2459895.500000000, A.D. 2022-Nov-12 00:00:00.0000, -4.112100195653758E+08, 2.578759129471115E+07, -3.730137800476717E+06,
2459902.500000000, A.D. 2022-Nov-19 00:00:00.0000, -4.124260272860792E+08, 1.632234918658823E+07, -4.405355578209655E+06,
2459909.500000000, A.D. 2022-Nov-26 00:00:00.0000, -4.133574142150041E+08, 6.845832763510804E+06, -5.077531346013824E+06,
2459916.500000000, A.D. 2022-Dec-03 00:00:00.0000, -4.140049298502008E+08, -2.635393682199518E+06, -5.746217992852014E+06,
2459923.500000000, A.D. 2022-Dec-10 00:00:00.0000, -4.143693817899555E+08, -1.211482590678911E+07, -6.410973347101049E+06,
2459930.500000000, A.D. 2022-Dec-17 00:00:00.0000, -4.144516340997427E+08, -2.158601458525245E+07, -7.071359798078238E+06,
2459937.500000000, A.D. 2022-Dec-24 00:00:00.0000, -4.142526058753701E+08, -3.104256041442074E+07, -7.726943951204190E+06,
2459944.500000000, A.D. 2022-Dec-31 00:00:00.0000, -4.137732696341245E+08, -4.047810933947039E+07, -8.377296340449274E+06,
2459951.500000000, A.D. 2023-Jan-07 00:00:00.0000, -4.130146494017534E+08, -4.988634693921521E+07, -9.021991130266491E+06,
2459958.500000000, A.D. 2023-Jan-14 00:00:00.0000, -4.119778204541556E+08, -5.926099147156443E+07, -9.660605585640136E+06,
2459965.500000000, A.D. 2023-Jan-21 00:00:00.0000, -4.106639113537635E+08, -6.859578875045832E+07, -1.029271951027524E+07,
2459972.500000000, A.D. 2023-Jan-28 00:00:00.0000, -4.090741046103125E+08, -7.788450904676756E+07, -1.091791500519520E+07,
2459979.500000000, A.D. 2023-Feb-04 00:00:00.0000, -4.072096361700875E+08, -8.712094298097381E+07, -1.153577628059755E+07,
2459986.500000000, A.D. 2023-Feb-11 00:00:00.0000, -4.050717955237902E+08, -9.629889659873849E+07, -1.214588937154340E+07,
2459993.500000000, A.D. 2023-Feb-18 00:00:00.0000, -4.026619264947927E+08, -1.054121864517938E+08, -1.274784181879476E+07,
2460000.500000000, A.D. 2023-Feb-25 00:00:00.0000, -3.999814284465407E+08, -1.144546348445620E+08, -1.334122235208240E+07,
2460007.500000000, A.D. 2023-Mar-04 00:00:00.0000, -3.970317578092148E+08, -1.234200652254799E+08, -1.392562058345624E+07,
2460014.500000000, A.D. 2023-Mar-11 00:00:00.0000, -3.938144298997065E+08, -1.323022977204554E+08, -1.450062671303780E+07,
2460021.500000000, A.D. 2023-Mar-18 00:00:00.0000, -3.903310209914725E+08, -1.410951448563461E+08, -1.506583125530557E+07,
2460028.500000000, A.D. 2023-Mar-25 00:00:00.0000, -3.865831704357962E+08, -1.497924075203728E+08, -1.562082480823772E+07,
2460035.500000000, A.D. 2023-Apr-01 00:00:00.0000, -3.825725824156797E+08, -1.583878707608407E+08, -1.616519787193136E+07,
2460042.500000000, A.D. 2023-Apr-08 00:00:00.0000, -3.783010279537253E+08, -1.668752982031467E+08, -1.669854055995632E+07,
2460049.500000000, A.D. 2023-Apr-15 00:00:00.0000, -3.737703495174424E+08, -1.752484261875844E+08, -1.722044207942232E+07,
2460056.500000000, A.D. 2023-Apr-22 00:00:00.0000, -3.689824664219304E+08, -1.835009606834251E+08, -1.773049039538519E+07,
2460063.500000000, A.D. 2023-Apr-29 00:00:00.0000, -3.639393783062526E+08, -1.916265747291963E+08, -1.822827214662240E+07,
2460070.500000000, A.D. 2023-May-06 00:00:00.0000, -3.586431684544275E+08, -1.996189046207927E+08, -1.871337250584629E+07,
2460077.500000000, A.D. 2023-May-13 00:00:00.0000, -3.530960079490710E+08, -2.074715457461946E+08, -1.918537496817331E+07,
2460084.500000000, A.D. 2023-May-20 00:00:00.0000, -3.473001604383771E+08, -2.151780485660102E+08, -1.964386113051358E+07,
2460091.500000000, A.D. 2023-May-27 00:00:00.0000, -3.412579873418440E+08, -2.227319147780619E+08, -2.008841048347658E+07,
2460098.500000000, A.D. 2023-Jun-03 00:00:00.0000, -3.349719534578176E+08, -2.301265936476447E+08, -2.051860022028588E+07,
2460105.500000000, A.D. 2023-Jun-10 00:00:00.0000, -3.284446329689795E+08, -2.373554785240111E+08, -2.093400506700334E+07,
2460112.500000000, A.D. 2023-Jun-17 00:00:00.0000, -3.216787157749684E+08, -2.444119036111066E+08, -2.133419714788024E+07,
2460119.500000000, A.D. 2023-Jun-24 00:00:00.0000, -3.146770138496768E+08, -2.512891409484818E+08, -2.171874591148889E+07,
2460126.500000000, A.D. 2023-Jul-01 00:00:00.0000, -3.074424673893476E+08, -2.579803967907895E+08, -2.208721807455219E+07,
2460133.500000000, A.D. 2023-Jul-08 00:00:00.0000, -2.999781524482536E+08, -2.644788065845085E+08, -2.243917736479667E+07,
2460140.500000000, A.D. 2023-Jul-15 00:00:00.0000, -2.922872913655294E+08, -2.707774313957970E+08, -2.277418417961811E+07,
$$EOE